ONEWEB-0113             
1 48050U 21025J   22147.31332643 -.00000158  00000+0 -46693-3 0  9994
2 48050  87.8995 254.5987 0001726  98.5861 261.5464 13.13471413 59053
ONEWEB-0112             
1 48051U 21025K   22147.30214078  .00000140  00000+0  34957-3 0  9994
2 48051  87.9067 254.4689 0001877 102.2228 257.9111 13.13470066 59062
ONEWEB-0156             
1 48052U 21025L   22147.38727706 -.00000008  00000+0 -55742-4 0  9991
2 48052  87.9007 254.5607 0001848 101.4147 258.7190 13.13472519 59057
ONEWEB-0161             
1 48053U 21025M   22147.36040395  .00000381  00000+0  10087-2 0  9995
2 48053  87.8951 254.5004 0001783 106.1587 253.9738 13.13470130 58987
ONEWEB-0158             
1 48054U 21025N   22147.55309020 -.00000304  00000+0 -86799-3 0  9991
2 48054  87.9011 254.5444 0001807  92.0280 268.1056 13.13468189 59134
ONEWEB-0157             
1 48055U 21025P   22147.34695998 -.00000008  00000+0 -55784-4 0  9993
2 48055  87.8979 254.5462 0002132 110.7201 249.4157 13.13468780 59041
ONEWEB-0162             
1 48056U 21025Q   22147.30887785  .00001399  00000+0  37958-2 0  9990
2 48056  87.9067 254.4825 0002015 116.1297 244.0039 13.13445066 59017
ONEWEB-0155             
1 48057U 21025R   22147.55979132 -.00000238  00000+0 -68696-3 0  9993
2 48057  87.8969 254.4756 0001748 104.8476 255.2847 13.13472479 59183
ONEWEB-0149             
1 48058U 21025S   22147.35144368  .00000210  00000+0  54130-3 0  9993
2 48058  87.9009 254.5472 0002486  98.8881 261.2529 13.13468966 58963
ONEWEB-0148             
1 48059U 21025T   22147.31559644 -.00000104  00000+0 -32059-3 0  9997
2 48059  87.8974 254.5220 0002862 108.2550 251.8890 13.13469435 59084
ONEWEB-0160             
1 48060U 21025U   22147.56205719 -.00000340  00000+0 -96472-3 0  9998
2 48060  87.8962 254.4671 0001768  61.5481 298.5826 13.13469174 59065
ONEWEB-0163             
1 48061U 21025V   22147.54636696 -.00000242  00000+0 -69708-3 0  9992
2 48061  87.9025 254.5764 0002146 118.2159 241.9187 13.13471709 59186
ONEWEB-0159             
1 48062U 21025W   22147.30662319  .00000058  00000+0  12328-3 0  9997
2 48062  87.9069 254.5184 0002307 112.8076 247.3296 13.13468091 59077
ONEWEB-0164             
1 48063U 21025X   22147.36489543  .00000662  00000+0  17779-2 0  9995
2 48063  87.9031 254.6278 0001517 104.0681 256.0617 13.13471223 59063
ONEWEB-0167             
1 48064U 21025Y   22147.54859753 -.00000253  00000+0 -72840-3 0  9999
2 48064  87.8990 254.5054 0002137 110.8583 249.2775 13.13468367 59078
ONEWEB-0166             
1 48065U 21025Z   22147.56877584 -.00000070  00000+0 -22667-3 0  9993
2 48065  87.9060 254.4190 0002028 108.5367 251.5982 13.13472010 59156
ONEWEB-0151             
1 48066U 21025AA  22147.57101668 -.00000094  00000+0 -29138-3 0  9994
2 48066  87.9007 254.5154 0001452 105.1970 254.9320 13.13471950 59090
ONEWEB-0170             
1 48067U 21025AB  22147.34920928  .00000132  00000+0  32688-3 0  9993
2 48067  87.9037 254.6213 0000997  82.2190 277.9053 13.13472022 59025
ONEWEB-0168             
1 48068U 21025AC  22147.33576054 -.00000180  00000+0 -52707-3 0  9999
2 48068  87.9011 254.5898 0001869 107.8327 252.3006 13.13472439 59039
ONEWEB-0173             
1 48069U 21025AD  22147.55755107 -.00000613  00000+0 -17144-2 0  9998
2 48069  87.9017 254.5550 0001886 118.8054 241.3265 13.13469288 59302
ONEWEB-0171             
1 48070U 21025AE  22147.36263960  .00000389  00000+0  10300-2 0  9995
2 48070  87.9070 254.4801 0002159 106.2205 253.9162 13.13472921 59093
ONEWEB-0172             
1 48071U 21025AF  22147.57212979 -.00000023  00000+0 -98044-4 0  9993
2 48071  87.8991 254.5909 0001724 110.7621 249.3693 13.13469570 60012
ONEWEB-0174             
1 48072U 21025AG  22147.55532046 -.00000294  00000+0 -84060-3 0  9994
2 48072  87.9073 254.4694 0002863 106.0521 254.0923 13.13471629 59337
ONEWEB-0175             
1 48073U 21025AH  22147.35364694  .00007356  00000+0  20090-1 0  9990
2 48073  87.8922 254.4888 0001303 104.3603 255.7671 13.13476870 58964
ONEWEB-0177             
1 48074U 21025AJ  22147.36711795  .00000315  00000+0  82666-3 0  9997
2 48074  87.9022 254.6015 0002245 122.7831 237.3515 13.13469028 59156
ONEWEB-0178             
1 48075U 21025AK  22147.30777476  .00000171  00000+0  43295-3 0  9995
2 48075  87.9061 254.5059 0002050 110.1887 249.9463 13.13472537 59197
ONEWEB-0108             
1 48076U 21025AL  22147.57324352 -.00000008  00000+0 -57806-4 0  9991
2 48076  87.8995 254.5175 0002205  92.7080 267.4301 13.13472078 59156
ONEWEB-0169             
1 48077U 21025AM  22147.29989915  .00000090  00000+0  21171-3 0  9997
2 48077  87.9026 254.6289 0002180  98.9641 261.1735 13.13468283 57774
ONEWEB-0176             
1 48210U 21031A   22147.46939215 -.00000170  00000+0 -49350-3 0  9990
2 48210  87.9069 224.2331 0002001 108.0328 252.1020 13.14500857 54946
ONEWEB-0184             
1 48211U 21031B   22147.59628041  .00000417  00000+0  10909-2 0  9996
2 48211  87.9036 224.1385 0000689 115.8091 244.3110 13.14502952 53649
ONEWEB-0179             
1 48212U 21031C   22147.48844753  .00009194  00000+0  24756-1 0  9990
2 48212  87.9031 224.1570 0003416 104.4389 255.7119 13.14457955 53676
ONEWEB-0180             
1 48213U 21031D   22147.59841185  .00000166  00000+0  41268-3 0  9998
2 48213  87.9032 224.1354 0002231 106.0575 254.0800 13.14505291 53572
ONEWEB-0218             
1 48214U 21031E   22147.46729185 -.00000180  00000+0 -52058-3 0  9997
2 48214  87.9015 224.1290 0001149 142.9113 217.2096 13.14502174 53718
ONEWEB-0209             
1 48215U 21031F   22147.22837081 -.00000036  00000+0 -13058-3 0  9994
2 48215  87.9045 224.2311 0002069 106.7874 253.3482 13.14503785 53686
ONEWEB-0198             
1 48216U 21031G   22147.59415348  .00000069  00000+0  15261-3 0  9995
2 48216  87.9036 224.1818 0001772 122.7647 237.3654 13.14501116 53841
ONEWEB-0189             
1 48217U 21031H   22147.30237426  .00000024  00000+0  29262-4 0  9992
2 48217  87.9031 224.1789 0001838 122.1490 237.9818 13.14502480 53547
ONEWEB-0196             
1 48218U 21031J   22147.58570903  .00000160  00000+0  39739-3 0  9993
2 48218  87.9052 224.1426 0001809 104.0965 256.0366 13.14502914 53589
ONEWEB-0183             
1 48219U 21031K   22147.48208322 -.00000500  00000+0 -13820-2 0  9998
2 48219  87.9055 224.1778 0002179 104.2075 255.9297 13.14502858 53665
ONEWEB-0185             
1 48220U 21031L   22147.58781142  .00000225  00000+0  57216-3 0  9997
2 48220  87.9042 224.1481 0002230 107.6534 252.4839 13.14503303 53603
ONEWEB-0187             
1 48221U 21031M   22147.48631641  .00000018  00000+0  13717-4 0  9994
2 48221  87.9056 224.1809 0002192 106.6517 253.4853 13.14504317 53603
ONEWEB-0192             
1 48222U 21031N   22147.23048183 -.00000083  00000+0 -25815-3 0  9996
2 48222  87.9040 224.1928 0001748 106.1721 253.9601 13.14504931 53481
ONEWEB-0219             
1 48223U 21031P   22147.59204909  .00000123  00000+0  29784-3 0  9998
2 48223  87.9036 224.1117 0002092 106.1844 253.9516 13.14501978 53737
ONEWEB-0202             
1 48224U 21031Q   22147.57090081  .00000108  00000+0  25776-3 0  9991
2 48224  87.9052 224.1662 0001538 142.9011 217.2225 13.14503434 53716
ONEWEB-0204             
1 48225U 21031R   22147.47998551 -.00000180  00000+0 -51886-3 0  9993
2 48225  87.9073 224.1952 0002466  85.8957 274.2455 13.14503063 53599
ONEWEB-0205             
1 48226U 21031S   22147.58147528  .00000334  00000+0  86767-3 0  9991
2 48226  87.9053 224.1460 0001924 115.1821 244.9509 13.14503038 53627
ONEWEB-0206             
1 48227U 21031T   22147.47786680 -.00000253  00000+0 -71790-3 0  9990
2 48227  87.9024 224.1289 0002293 106.7314 253.4067 13.14500812 53562
ONEWEB-0182             
1 48228U 21031U   22147.47152821 -.00000141  00000+0 -41369-3 0  9990
2 48228  87.9066 224.2099 0002234 108.4721 251.6651 13.14503808 53786
ONEWEB-0186             
1 48229U 21031V   22147.48420119 -.00000389  00000+0 -10834-2 0  9996
2 48229  87.9041 224.1485 0001981 110.6347 249.4996 13.14503125 53728
ONEWEB-0181             
1 48230U 21031W   22147.46093877 -.00000153  00000+0 -44609-3 0  9990
2 48230  87.9051 224.2049 0001887 103.9021 256.2319 13.14499918 53579
ONEWEB-0188             
1 48231U 21031X   22147.57724285  .00000415  00000+0  10846-2 0  9991
2 48231  87.9060 224.1800 0002156 107.2411 252.8954 13.14505664 53498
ONEWEB-0220             
1 48232U 21031Y   22147.46305146 -.00000511  00000+0 -14117-2 0  9995
2 48232  87.9022 224.1355 0002181 115.1835 244.9521 13.14501849 53749
ONEWEB-0165             
1 48233U 21031Z   22147.56877911  .00000214  00000+0  54349-3 0  9991
2 48233  87.9052 224.1702 0002105 111.4548 248.6807 13.14503538 53717
ONEWEB-0199             
1 48234U 21031AA  22147.47573430 -.00000541  00000+0 -14931-2 0  9998
2 48234  87.9043 224.1748 0002068 108.3297 251.8057 13.14502674 53603
ONEWEB-0203             
1 48235U 21031AB  22147.46518155 -.00000196  00000+0 -56237-3 0  9993
2 48235  87.9066 224.1539 0001489  94.6720 265.4580 13.14503706 53611
ONEWEB-0197             
1 48236U 21031AC  22147.30025406  .00000001  00000+0 -31344-4 0  9996
2 48236  87.9048 224.2096 0001887 104.5948 255.5391 13.14501638 53506
ONEWEB-0194             
1 48237U 21031AD  22147.57299907  .00000162  00000+0  40371-3 0  9991
2 48237  87.9041 224.1506 0001713  87.4378 272.6947 13.14504871 53711
ONEWEB-0193             
1 48238U 21031AE  22147.58993582  .00000227  00000+0  57775-3 0  9991
2 48238  87.9050 224.1510 0001717 105.0230 255.1089 13.14502391 53667
ONEWEB-0191             
1 48239U 21031AF  22147.60048530  .00000079  00000+0  17913-3 0  9994
2 48239  87.9034 224.1441 0001785  99.4348 260.6984 13.14504308 53524
ONEWEB-0195             
1 48240U 21031AG  22147.57936079  .00000236  00000+0  60213-3 0  9992
2 48240  87.9042 224.1363 0001835 120.7985 239.3326 13.14503332 53506
